[{"OBJECT_NAME":"UWE-3","OBJECT_ID":"2013-066AG","EPOCH":"2026-03-04T15:31:29.717472","MEAN_MOTION":14.96109228,"ECCENTRICITY":0.00487583,"INCLINATION":97.8595,"RA_OF_ASC_NODE":19.1594,"ARG_OF_PERICENTER":309.847,"MEAN_ANOMALY":49.8465,"EPHEMERIS_TYPE":0,"CLASSIFICATION_TYPE":"U","NORAD_CAT_ID":39446,"ELEMENT_SET_NO":999,"REV_AT_EPOCH":66194,"BSTAR":0.00066020229,"MEAN_MOTION_DOT":7.547e-5,"MEAN_MOTION_DDOT":0},{"OBJECT_NAME":"UNISAT-6","OBJECT_ID":"2014-033C","EPOCH":"2026-03-04T23:09:38.698272","MEAN_MOTION":14.87594355,"ECCENTRICITY":0.0046374,"INCLINATION":97.7716,"RA_OF_ASC_NODE":218.6405,"ARG_OF_PERICENTER":53.2133,"MEAN_ANOMALY":307.3326,"EPHEMERIS_TYPE":0,"CLASSIFICATION_TYPE":"U","NORAD_CAT_ID":40012,"ELEMENT_SET_NO":999,"REV_AT_EPOCH":63066,"BSTAR":0.00053106813,"MEAN_MOTION_DOT":4.867e-5,"MEAN_MOTION_DDOT":0},{"OBJECT_NAME":"DUCHIFAT-1","OBJECT_ID":"2014-033M","EPOCH":"2026-03-04T20:33:08.144064","MEAN_MOTION":15.49131837,"ECCENTRICITY":0.00065436,"INCLINATION":98.0635,"RA_OF_ASC_NODE":109.7165,"ARG_OF_PERICENTER":98.1423,"MEAN_ANOMALY":262.0569,"EPHEMERIS_TYPE":0,"CLASSIFICATION_TYPE":"U","NORAD_CAT_ID":40021,"ELEMENT_SET_NO":999,"REV_AT_EPOCH":63952,"BSTAR":0.0011792086,"MEAN_MOTION_DOT":0.00064489,"MEAN_MOTION_DDOT":0},{"OBJECT_NAME":"QB50P1","OBJECT_ID":"2014-033R","EPOCH":"2026-03-05T05:21:13.890816","MEAN_MOTION":15.16402053,"ECCENTRICITY":0.00078423,"INCLINATION":98.1001,"RA_OF_ASC_NODE":68.2039,"ARG_OF_PERICENTER":211.557,"MEAN_ANOMALY":148.5192,"EPHEMERIS_TYPE":0,"CLASSIFICATION_TYPE":"U","NORAD_CAT_ID":40025,"ELEMENT_SET_NO":999,"REV_AT_EPOCH":63726,"BSTAR":0.00068278635,"MEAN_MOTION_DOT":0.00013213,"MEAN_MOTION_DDOT":0},{"OBJECT_NAME":"LILACSAT-2","OBJECT_ID":"2015-049K","EPOCH":"2026-03-05T07:30:37.960704","MEAN_MOTION":15.4783205,"ECCENTRICITY":0.00055794,"INCLINATION":97.4811,"RA_OF_ASC_NODE":97.3853,"ARG_OF_PERICENTER":267.0548,"MEAN_ANOMALY":93.0064,"EPHEMERIS_TYPE":0,"CLASSIFICATION_TYPE":"U","NORAD_CAT_ID":40908,"ELEMENT_SET_NO":999,"REV_AT_EPOCH":57966,"BSTAR":0.00041510627,"MEAN_MOTION_DOT":0.00021513,"MEAN_MOTION_DDOT":0},{"OBJECT_NAME":"FOX-1A (AO-85)","OBJECT_ID":"2015-058D","EPOCH":"2026-03-04T18:15:47.282688","MEAN_MOTION":14.90304252,"ECCENTRICITY":0.0129144,"INCLINATION":64.7737,"RA_OF_ASC_NODE":243.3435,"ARG_OF_PERICENTER":97.8982,"MEAN_ANOMALY":263.6811,"EPHEMERIS_TYPE":0,"CLASSIFICATION_TYPE":"U","NORAD_CAT_ID":40967,"ELEMENT_SET_NO":999,"REV_AT_EPOCH":9800,"BSTAR":0.00050222147,"MEAN_MOTION_DOT":5.565e-5,"MEAN_MOTION_DDOT":0},{"OBJECT_NAME":"CAS-2T & KS-1Q","OBJECT_ID":"2016-066G","EPOCH":"2026-03-05T04:54:29.029824","MEAN_MOTION":14.4445331,"ECCENTRICITY":0.03437316,"INCLINATION":98.3895,"RA_OF_ASC_NODE":141.1041,"ARG_OF_PERICENTER":85.0504,"MEAN_ANOMALY":278.983,"EPHEMERIS_TYPE":0,"CLASSIFICATION_TYPE":"U","NORAD_CAT_ID":41847,"ELEMENT_SET_NO":999,"REV_AT_EPOCH":48978,"BSTAR":0.00028123697,"MEAN_MOTION_DOT":1.957e-5,"MEAN_MOTION_DDOT":0},{"OBJECT_NAME":"RADFXSAT (FOX-1B)","OBJECT_ID":"2017-073E","EPOCH":"2026-03-05T03:47:09.911040","MEAN_MOTION":15.10758525,"ECCENTRICITY":0.01550977,"INCLINATION":97.4866,"RA_OF_ASC_NODE":293.5503,"ARG_OF_PERICENTER":327.9076,"MEAN_ANOMALY":31.2782,"EPHEMERIS_TYPE":0,"CLASSIFICATION_TYPE":"U","NORAD_CAT_ID":43017,"ELEMENT_SET_NO":999,"REV_AT_EPOCH":44967,"BSTAR":0.00061715935,"MEAN_MOTION_DOT":0.00013614,"MEAN_MOTION_DDOT":0},{"OBJECT_NAME":"DIWATA-2B","OBJECT_ID":"2018-084H","EPOCH":"2026-03-05T07:39:53.954208","MEAN_MOTION":14.99932619,"ECCENTRICITY":0.00113204,"INCLINATION":98.1029,"RA_OF_ASC_NODE":256.1771,"ARG_OF_PERICENTER":140.3849,"MEAN_ANOMALY":219.8202,"EPHEMERIS_TYPE":0,"CLASSIFICATION_TYPE":"U","NORAD_CAT_ID":43678,"ELEMENT_SET_NO":999,"REV_AT_EPOCH":40064,"BSTAR":0.00025305352,"MEAN_MOTION_DOT":3.08e-5,"MEAN_MOTION_DDOT":0},{"OBJECT_NAME":"ES'HAIL 2","OBJECT_ID":"2018-090A","EPOCH":"2026-03-05T04:49:38.668800","MEAN_MOTION":1.002718,"ECCENTRICITY":0.00027026,"INCLINATION":0.0115,"RA_OF_ASC_NODE":210.4503,"ARG_OF_PERICENTER":169.4927,"MEAN_ANOMALY":241.1802,"EPHEMERIS_TYPE":0,"CLASSIFICATION_TYPE":"U","NORAD_CAT_ID":43700,"ELEMENT_SET_NO":999,"REV_AT_EPOCH":2663,"BSTAR":0,"MEAN_MOTION_DOT":1.35e-6,"MEAN_MOTION_DDOT":0},{"OBJECT_NAME":"FOX-1CLIFF (AO-95)","OBJECT_ID":"2018-099N","EPOCH":"2026-03-05T02:43:49.264896","MEAN_MOTION":15.2426747,"ECCENTRICITY":0.00087517,"INCLINATION":97.4519,"RA_OF_ASC_NODE":124.8615,"ARG_OF_PERICENTER":3.7344,"MEAN_ANOMALY":356.3957,"EPHEMERIS_TYPE":0,"CLASSIFICATION_TYPE":"U","NORAD_CAT_ID":43770,"ELEMENT_SET_NO":999,"REV_AT_EPOCH":39735,"BSTAR":0.00065894141,"MEAN_MOTION_DOT":0.00016052,"MEAN_MOTION_DDOT":0},{"OBJECT_NAME":"ITASAT","OBJECT_ID":"2018-099AE","EPOCH":"2026-03-05T02:14:15.121248","MEAN_MOTION":15.17585186,"ECCENTRICITY":0.00126563,"INCLINATION":97.4171,"RA_OF_ASC_NODE":117.715,"ARG_OF_PERICENTER":2.8965,"MEAN_ANOMALY":357.234,"EPHEMERIS_TYPE":0,"CLASSIFICATION_TYPE":"U","NORAD_CAT_ID":43786,"ELEMENT_SET_NO":999,"REV_AT_EPOCH":39711,"BSTAR":0.00051231356,"MEAN_MOTION_DOT":0.00010254,"MEAN_MOTION_DDOT":0},{"OBJECT_NAME":"JY1SAT (JO-97)","OBJECT_ID":"2018-099AX","EPOCH":"2026-03-05T02:36:41.745600","MEAN_MOTION":15.3009508,"ECCENTRICITY":0.00046111,"INCLINATION":97.4261,"RA_OF_ASC_NODE":126.7857,"ARG_OF_PERICENTER":278.5608,"MEAN_ANOMALY":81.511,"EPHEMERIS_TYPE":0,"CLASSIFICATION_TYPE":"U","NORAD_CAT_ID":43803,"ELEMENT_SET_NO":999,"REV_AT_EPOCH":39769,"BSTAR":0.00074594772,"MEAN_MOTION_DOT":0.00021694,"MEAN_MOTION_DDOT":0},{"OBJECT_NAME":"UWE-4","OBJECT_ID":"2018-111E","EPOCH":"2026-03-05T06:08:45.665376","MEAN_MOTION":15.39629767,"ECCENTRICITY":0.0008409,"INCLINATION":97.5855,"RA_OF_ASC_NODE":348.3848,"ARG_OF_PERICENTER":356.822,"MEAN_ANOMALY":3.2971,"EPHEMERIS_TYPE":0,"CLASSIFICATION_TYPE":"U","NORAD_CAT_ID":43880,"ELEMENT_SET_NO":999,"REV_AT_EPOCH":39475,"BSTAR":0.00099843892,"MEAN_MOTION_DOT":0.00039467,"MEAN_MOTION_DDOT":0},{"OBJECT_NAME":"TIANYAN 01","OBJECT_ID":"2019-093C","EPOCH":"2026-03-05T05:49:11.942976","MEAN_MOTION":14.86331757,"ECCENTRICITY":0.00150603,"INCLINATION":97.7624,"RA_OF_ASC_NODE":138.9863,"ARG_OF_PERICENTER":71.224,"MEAN_ANOMALY":289.0608,"EPHEMERIS_TYPE":0,"CLASSIFICATION_TYPE":"U","NORAD_CAT_ID":44881,"ELEMENT_SET_NO":999,"REV_AT_EPOCH":33597,"BSTAR":0.00020425772,"MEAN_MOTION_DOT":1.749e-5,"MEAN_MOTION_DDOT":0},{"OBJECT_NAME":"RS-44 & BREEZE-KM R/B","OBJECT_ID":"2019-096E","EPOCH":"2026-03-04T20:51:46.251648","MEAN_MOTION":12.79747365,"ECCENTRICITY":0.02181219,"INCLINATION":82.5192,"RA_OF_ASC_NODE":49.0182,"ARG_OF_PERICENTER":28.5666,"MEAN_ANOMALY":332.7186,"EPHEMERIS_TYPE":0,"CLASSIFICATION_TYPE":"U","NORAD_CAT_ID":44909,"ELEMENT_SET_NO":999,"REV_AT_EPOCH":28900,"BSTAR":-1.8403547e-5,"MEAN_MOTION_DOT":7.0e-8,"MEAN_MOTION_DDOT":0}]
