UWE-3                   
1 39446U 13066AG  26063.64687173  .00007547  00000+0  66020-3 0  9990
2 39446  97.8595  19.1594 0048758 309.8470  49.8465 14.96109228661947
UNISAT-6                
1 40012U 14033C   26063.96503123  .00004867  00000+0  53107-3 0  9997
2 40012  97.7716 218.6405 0046374  53.2133 307.3326 14.87594355630669
DUCHIFAT-1              
1 40021U 14033M   26063.85634426  .00064489  00000+0  11792-2 0  9995
2 40021  98.0635 109.7165 0006543  98.1423 262.0569 15.49131837639521
QB50P1                  
1 40025U 14033R   26064.22307744  .00013213  00000+0  68279-3 0  9993
2 40025  98.1001  68.2039 0007842 211.5570 148.5192 15.16402053637263
LILACSAT-2              
1 40908U 15049K   26064.31293936  .00021513  00000+0  41511-3 0  9990
2 40908  97.4811  97.3853 0005579 267.0548  93.0064 15.47832050579666
FOX-1A (AO-85)          
1 40967U 15058D   26063.76096392  .00005565  00000+0  50222-3 0  9998
2 40967  64.7737 243.3435 0129144  97.8982 263.6811 14.90304252 98004
CAS-2T & KS-1Q          
1 41847U 16066G   26064.20450266  .00001957  00000+0  28124-3 0  9997
2 41847  98.3895 141.1041 0343731  85.0504 278.9830 14.44453310489785
RADFXSAT (FOX-1B)       
1 43017U 17073E   26064.15775360  .00013614  00000+0  61716-3 0  9993
2 43017  97.4866 293.5503 0155097 327.9076  31.2782 15.10758525449677
DIWATA-2B               
1 43678U 18084H   26064.31937447  .00003080  00000+0  25305-3 0  9993
2 43678  98.1029 256.1771 0011320 140.3849 219.8202 14.99932619400645
ES'HAIL 2               
1 43700U 18090A   26064.20114200  .00000135  00000+0  00000+0 0  9997
2 43700   0.0115 210.4503 0002702 169.4927 241.1802  1.00271800 26631
FOX-1CLIFF (AO-95)      
1 43770U 18099N   26064.11376464  .00016052  00000+0  65894-3 0  9996
2 43770  97.4519 124.8615 0008751   3.7344 356.3957 15.24267470397350
ITASAT                  
1 43786U 18099AE  26064.09323057  .00010254  00000+0  51231-3 0  9998
2 43786  97.4171 117.7150 0012656   2.8965 357.2340 15.17585186397113
JY1SAT (JO-97)          
1 43803U 18099AX  26064.10881650  .00021694  00000+0  74595-3 0  9996
2 43803  97.4261 126.7857 0004611 278.5608  81.5110 15.30095080397694
UWE-4                   
1 43880U 18111E   26064.25608409  .00039467  00000+0  99844-3 0  9992
2 43880  97.5855 348.3848 0008409 356.8220   3.2971 15.39629767394754
TIANYAN 01              
1 44881U 19093C   26064.24249934  .00001749  00000+0  20426-3 0  9999
2 44881  97.7624 138.9863 0015060  71.2240 289.0608 14.86331757335973
RS-44 & BREEZE-KM R/B   
1 44909U 19096E   26063.86928532  .00000007  00000+0 -18404-4 0  9999
2 44909  82.5192  49.0182 0218121  28.5666 332.7186 12.79747365289007
